BEIDOU 3 (C01)          
1 36287U 10001A   21098.53232275 -.00000299  00000-0  00000-0 0  9998
2 36287   1.7719  43.4006 0004024  77.9486  47.6534  1.00269185 41153
BEIDOU 5 (C06)          
1 36828U 10036A   21098.45670439 -.00000181  00000-0  00000-0 0  9996
2 36828  54.1734 180.2433 0110041 234.7043  65.1683  1.00283037 39201
BEIDOU 6 (C04)          
1 37210U 10057A   21098.82334637 -.00000131  00000-0  00000-0 0  9998
2 37210   0.7417  38.9867 0001858 175.5527  78.9939  1.00273177 38272
BEIDOU 7 (C07)          
1 37256U 10068A   21098.80343356 -.00000197  00000-0  00000-0 0  9998
2 37256  50.9800 294.8229 0082297 215.6403  95.7806  1.00277367 37785
BEIDOU 8 (C08)          
1 37384U 11013A   21098.79217209 -.00000188  00000-0  00000-0 0  9996
2 37384  59.6844  58.6034 0053587 207.9369 335.6542  1.00273382 36668
BEIDOU 9 (C09)          
1 37763U 11038A   21098.69278185 -.00000113  00000-0  00000-0 0  9991
2 37763  54.4609 182.6759 0080655 225.0625 134.4234  1.00279707 35642
BEIDOU 10 (C10)         
1 37948U 11073A   21098.22359126 -.00000136  00000-0  00000-0 0  9994
2 37948  51.0806 294.4429 0069543 214.1077 224.4337  1.00268591 34392
BEIDOU 11 (C05)         
1 38091U 12008A   21098.98071757  .00000041  00000-0  00000-0 0  9991
2 38091   1.4062  65.6553 0009055 314.5267 228.9922  1.00269896 33475
BEIDOU 12 (C11)         
1 38250U 12018A   21098.29212361 -.00000120  00000-0  00000-0 0  9990
2 38250  56.7574   7.9276 0021430 252.2466 161.7338  1.86234055 60988
BEIDOU 13 (C12)         
1 38251U 12018B   21098.46082368 -.00000120  00000-0  00000-0 0  9992
2 38251  56.6793   7.2755 0013024 259.5773 311.9451  1.86234236 60983
BEIDOU 15 (C14)         
1 38775U 12050B   21098.85988009  .00000055  00000-0  00000-0 0  9995
2 38775  55.1749 126.3292 0015557 315.6352   0.8198  1.86232307 58366
BEIDOU 16 (C02)         
1 38953U 12059A   21098.97670384 -.00000192  00000-0  00000-0 0  9992
2 38953   1.8040  84.7936 0009446 282.7169 265.5520  1.00272467 31040
BEIDOU 17 (C31)         
1 40549U 15019A   21098.28945231 -.00000162  00000-0  00000+0 0  9991
2 40549  52.6029 317.7992 0036691 187.2506 252.3961  1.00281723 22073
BEIDOU 18 (C57)         
1 40748U 15037A   21098.73759495 -.00000119  00000-0  00000-0 0  9990
2 40748  55.9433   6.3962 0005562   2.3130 304.7352  1.86233342 38813
BEIDOU 19 (C58)         
1 40749U 15037B   21098.67818778 -.00000120  00000-0  00000-0 0  9996
2 40749  55.9464   6.3855 0006427 329.6945  73.9372  1.86232244 38816
BEIDOU 20 (C18)         
1 40938U 15053A   21098.81781551 -.00000108  00000-0  00000-0 0  9994
2 40938  52.1706 280.8499 0047419 189.5699 113.8563  1.00253301 20340
BEIDOU IGSO-6 (C13)     
1 41434U 16021A   21098.93429083 -.00000155  00000-0  00000-0 0  9996
2 41434  57.4669  57.3707 0040138 217.0991 355.7219  1.00283656 18472
BEIDOU-2 G7 (C03)       
1 41586U 16037A   21098.95260583 -.00000371  00000-0  00000-0 0  9991
2 41586   1.5556  65.1601 0010099  13.5454 212.1431  1.00267942 17786
BEIDOU-3 M1 (C19)       
1 43001U 17069A   21098.42483616  .00000054  00000-0  00000-0 0  9994
2 43001  55.3295 126.2860 0011799 287.3811 253.6101  1.86231737 23293
BEIDOU-3 M2 (C20)       
1 43002U 17069B   21098.11075837  .00000051  00000-0  00000-0 0  9990
2 43002  55.3297 126.3319 0010161 305.6352  68.3530  1.86231499 23283
BEIDOU-3 M3 (C27)       
1 43107U 18003A   21098.80313464 -.00000121  00000-0  00000-0 0  9991
2 43107  55.3859   7.5038 0005337  34.8311 249.2264  1.86232460 22053
BEIDOU-3 M4 (C28)       
1 43108U 18003B   21098.74041990 -.00000121  00000-0  00000-0 0  9997
2 43108  55.3793   7.4996 0002936 268.1069  19.0793  1.86232402 22053
BEIDOU-3 M5 (C21)       
1 43207U 18018A   21098.22249048  .00000052  00000-0  00000-0 0  9992
2 43207  55.2883 126.4212 0007278 321.2370  38.7802  1.86231640 21438
BEIDOU-3 M6 (C22)       
1 43208U 18018B   21098.28916521  .00000053  00000-0  00000-0 0  9997
2 43208  55.2877 126.4233 0009823 296.2696  63.6964  1.86231734 21435
BEIDOU-3 M7 (C29)       
1 43245U 18029A   21098.93569803 -.00000119  00000-0  00000-0 0  9993
2 43245  55.3195   5.2958 0001435 356.3945 286.6962  1.86232566 20599
BEIDOU-3 M8 (C30)       
1 43246U 18029B   21098.86792760 -.00000119  00000-0  10000-3 0  9990
2 43246  55.3153   5.3299 0005357 349.6386 294.1433  1.86232747 20581
BEIDOU IGSO-7 (C16)     
1 43539U 18057A   21098.39027313 -.00000159  00000-0  00000-0 0  9999
2 43539  55.0539 179.5823 0037486 219.4818  50.3824  1.00290610 10146
BEIDOU-3 M9 (C23)       
1 43581U 18062A   21098.75461774 -.00000044  00000-0  00000-0 0  9998
2 43581  54.4315 246.9866 0001849 290.1864 127.5475  1.86231762 18330
BEIDOU-3 M10 (C24)      
1 43582U 18062B   21098.52924926 -.00000042  00000-0  00000-0 0  9995
2 43582  54.4316 246.9842 0005522  16.3939 341.5413  1.86232021 18327
BEIDOU-3 M11 (C25)      
1 43602U 18067A   21098.55591686 -.00000043  00000-0  00000-0 0  9990
2 43602  54.5079 245.5617 0007102   6.9128  51.2175  1.86231598 17825
BEIDOU-3 M12 (C26)      
1 43603U 18067B   21098.61890272 -.00000044  00000-0  00000-0 0  9992
2 43603  54.5049 245.5258 0004228 359.9987  10.8381  1.86231511 17841
BEIDOU-3 M13 (C32)      
1 43622U 18072A   21098.77290196  .00000055  00000-0  00000-0 0  9996
2 43622  55.2538 125.9729 0008345 283.7680 220.5266  1.86231583 17352
BEIDOU-3 M14 (C33)      
1 43623U 18072B   21098.61920396  .00000055  00000-0  00000-0 0  9992
2 43623  55.2543 125.9699 0006469 302.9022 188.5820  1.86231587 17357
BEIDOU-3 M15 (C34)      
1 43647U 18078A   21098.45869661 -.00000120  00000-0  10000-3 0  9991
2 43647  55.2116   5.5070 0007762 352.9921 286.1029  1.86232682 16852
BEIDOU-3 M16 (C35)      
1 43648U 18078B   21098.44260730 -.00000120  00000-0  10000-3 0  9993
2 43648  55.2076   5.5155 0005691   0.9331 175.9565  1.86232253 16872
BEIDOU-3 G1 (C59)       
1 43683U 18085A   21098.81933351 -.00000295  00000-0  00000-0 0  9996
2 43683   1.1696 234.9775 0002259  24.7314  12.5153  1.00289746  9053
BEIDOU-3 M17 (C36)      
1 43706U 18093A   21098.34807642 -.00000041  00000-0  00000-0 0  9991
2 43706  54.5114 246.8539 0007729 273.7175  96.3993  1.86231776 16227
BEIDOU-3 M18 (C37)      
1 43707U 18093B   21098.76025613 -.00000044  00000-0  00000-0 0  9991
2 43707  54.5126 246.8312 0006856 304.5941  72.6600  1.86232002 16230
BEIDOU-3 IGSO-1 (C38)   
1 44204U 19023A   21098.79033296 -.00000205  00000-0  00000-0 0  9996
2 44204  55.9241  57.6713 0015806 204.9232 332.0468  1.00259597  7352
BEIDOU-2 G8             
1 44231U 19027A   21098.82029310 -.00000266  00000-0  00000-0 0  9993
2 44231   0.3594 323.9296 0005296 238.2774  74.9339  1.00271148  7068
BEIDOU-3 IGSO-2 (C39)   
1 44337U 19035A   21098.53516620 -.00000134  00000-0  00000-0 0  9996
2 44337  55.0845 175.6225 0017546 193.4664 125.5529  1.00253571  6687
BEIDOU-3 M23 (C45)      
1 44542U 19061A   21098.58860803 -.00000042  00000-0  10000-3 0  9995
2 44542  54.7371 246.9029 0007694 341.7223 233.7335  1.86231187 10484
BEIDOU-3 M24 (C46)      
1 44543U 19061B   21098.41676080 -.00000041  00000-0  10000-3 0  9999
2 44543  54.7363 246.8789 0004757 338.4992  32.5011  1.86231661 10495
BEIDOU-3 IGSO-3         
1 44709U 19073A   21098.00563999 -.00000134  00000-0  00000-0 0  9994
2 44709  58.0233 300.8729 0019005 198.6685 163.4500  1.00294440  5440
BEIDOU-3 M21            
1 44793U 19078A   21098.37600398 -.00000121  00000-0  10000-3 0  9997
2 44793  55.0594   5.5867 0007506 357.8570 180.3332  1.86232304  9346
BEIDOU-3 M22            
1 44794U 19078B   21098.51100296 -.00000120  00000-0  00000-0 0  9991
2 44794  55.0367   5.5806 0005737 355.6943 183.8517  1.86232792  9346
BEIDOU-3 M19            
1 44864U 19090A   21098.52375071  .00000054  00000-0  00000-0 0  9994
2 44864  55.1883 126.2154 0017913 267.0225 115.6726  1.86231687  8934
BEIDOU-3 M20            
1 44865U 19090B   21098.55726388  .00000054  00000-0  00000+0 0  9998
2 44865  55.1905 126.2458 0016458 280.4780 214.6151  1.86231801  8913
BEIDOU-3 G2             
1 45344U 20017A   21098.97064567 -.00000162  00000-0  00000-0 0  9994
2 45344   2.5221 334.8434 0003252  90.2941 201.7398  1.00271584  4260
BEIDOU-3 G3             
1 45807U 20040A   21098.97195653 -.00000375  00000-0  00000-0 0  9991
2 45807   2.4439 298.4507 0007903  18.1585 341.2041  1.00267007  3078
